GOES 19                 
1 60133U 24119A   26094.80308310 -.00000248  00000+0  00000+0 0  9997
2 60133   0.0448  39.4656 0000971  21.2278 346.3323  1.00271622  6228
FENGYUN 3H              
1 65815U 25219A   26094.82691318  .00000161  00000+0  96315-4 0  9998
2 65815  98.6720  37.0430 0000723  69.3401 290.7853 14.19940042 26973
