[{"OBJECT_NAME":"GOES 19","OBJECT_ID":"2024-119A","EPOCH":"2026-04-04T19:16:26.379840","MEAN_MOTION":1.00271622,"ECCENTRICITY":9.71e-5,"INCLINATION":0.0448,"RA_OF_ASC_NODE":39.4656,"ARG_OF_PERICENTER":21.2278,"MEAN_ANOMALY":346.3323,"EPHEMERIS_TYPE":0,"CLASSIFICATION_TYPE":"U","NORAD_CAT_ID":60133,"ELEMENT_SET_NO":999,"REV_AT_EPOCH":622,"BSTAR":0,"MEAN_MOTION_DOT":-2.48e-6,"MEAN_MOTION_DDOT":0},{"OBJECT_NAME":"FENGYUN 3H","OBJECT_ID":"2025-219A","EPOCH":"2026-04-04T19:50:45.298752","MEAN_MOTION":14.19940042,"ECCENTRICITY":7.23e-5,"INCLINATION":98.672,"RA_OF_ASC_NODE":37.043,"ARG_OF_PERICENTER":69.3401,"MEAN_ANOMALY":290.7853,"EPHEMERIS_TYPE":0,"CLASSIFICATION_TYPE":"U","NORAD_CAT_ID":65815,"ELEMENT_SET_NO":999,"REV_AT_EPOCH":2697,"BSTAR":9.6315e-5,"MEAN_MOTION_DOT":1.61e-6,"MEAN_MOTION_DDOT":0}]
